{
  "norad_id": 59313,
  "name": "STARLINK-31495",
  "history": [
    {
      "epoch": "2026-03-28T13:17:49.484544Z",
      "apogee_km": 485.130374875037,
      "perigee_km": 480.91076297015024,
      "latitude_deg": -1.0580898472390085e-05,
      "longitude_deg": 91.44407569635422,
      "height_km": 482.3850587526122,
      "semi_major_axis_km": 6861.157568922594,
      "eccentricity": 0.0003075,
      "inclination_deg": 43.0084,
      "raan_deg": 116.8731,
      "arg_perigee_deg": 281.3265,
      "mean_anomaly_deg": 78.7241,
      "mean_motion_rev_day": 15.27589527
    }
  ]
}